IRIDIUM 39              
1 25042U 97069D   25344.18442587  .00001288  00000+0  33010-3 0  9999
2 25042  86.3912 135.7275 0019738  79.9066 280.4363 14.49499170474457
IRIDIUM 38              
1 25043U 97069E   25343.91670455  .00000737  00000+0  23597-3 0  9994
2 25043  86.3970 159.2949 0000930 160.9325 199.1908 14.38309207471215
IRIDIUM 42              
1 25077U 97077A   25344.00004233  .00000644  00000+0  21263-3 0  9991
2 25077  86.3978 165.6434 0001228  94.0803 266.0535 14.36527778466430
IRIDIUM 44              
1 25078U 97077B   25344.17431952  .00000658  00000+0  20113-3 0  9990
2 25078  86.3964 147.0384 0003030 128.1775 231.9698 14.40428745469033
IRIDIUM 45              
1 25104U 97082A   25344.19203860  .00041470  00000+0  11769-2 0  9996
2 25104  86.3546 321.9339 0100730  30.5307 330.1751 15.31011281478883
IRIDIUM 24              
1 25105U 97082B   25344.33526727  .00000702  00000+0  20654-3 0  9990
2 25105  86.3910   5.5728 0010268 205.7925 154.2765 14.42323751468602
IRIDIUM 51              
1 25262U 98018A   25344.21042362  .00129016  00000+0  14116-2 0  9994
2 25262  86.3733 327.5428 0048225 285.6868  73.9080 15.61417686474258
IRIDIUM 57              
1 25273U 98019B   25344.26366404  .00000616  00000+0  20513-3 0  9991
2 25273  86.3958  71.4284 0002034  97.6807 262.4621 14.36048887450058
